IRIDIUM 155             
1 43573U 18061E   19206.53733793 -.00000010  00000-0 -10537-4 0  9999
2 43573  86.3953  29.2679 0001597  69.8052 290.3316 14.34217943 52363
IRIDIUM 154             
1 43574U 18061F   19206.51830862 -.00000016  00000-0 -12755-4 0  9993
2 43574  86.3957  29.2904 0002440  87.1974 272.9501 14.34217252 52403
IRIDIUM 163             
1 43575U 18061G   19206.49929833 -.00000021  00000-0 -14455-4 0  9993
2 43575  86.3954  29.2900 0002156 106.5328 253.6105 14.34218323 52372
IRIDIUM 156             
1 43576U 18061H   19206.54367210 -.00000023  00000-0 -15245-4 0  9995
2 43576  86.3955  29.2757 0001723  92.7737 267.3656 14.34217326 52367
IRIDIUM 164             
1 43577U 18061J   19206.52465044 -.00000014  00000-0 -11938-4 0  9993
2 43577  86.3956  29.2858 0002298  90.0577 270.0882 14.34218216 52419
IRIDIUM 159             
1 43578U 18061K   19206.56270120  .00000011  00000-0 -30506-5 0  9996
2 43578  86.3955  29.2597 0002281  87.4115 272.7341 14.34217204 52380
IRIDIUM 180             
1 43922U 19002A   19206.42267378  .00000066  00000-0  16346-4 0  9995
2 43922  86.3991 326.1514 0003506 102.9386 257.2201 14.34218366 28011
IRIDIUM 176             
1 43923U 19002B   19206.41154688  .00000104  00000-0  12605-4 0  9991
2 43923  86.6125 326.1734 0002347  99.7126 260.4356 14.72245734 28664
IRIDIUM 168             
1 43924U 19002C   19206.55587547  .00000064  00000-0  15851-4 0  9992
2 43924  86.3993 326.1017 0002631  94.4809 265.6687 14.34216912 27976
IRIDIUM 173             
1 43925U 19002D   19206.40363857  .00000055  00000-0  12592-4 0  9992
2 43925  86.3990 326.1564 0002447  95.6004 264.5471 14.34218767 27942
IRIDIUM 169             
1 43926U 19002E   19206.42930824  .00000070  00000-0  16755-4 0  9991
2 43926  87.4056 345.6260 0002966  32.5491 327.5891 14.38623700 28109
IRIDIUM 172             
1 43927U 19002F   19206.39731956  .00000062  00000-0  15145-4 0  9996
2 43927  86.3990 326.1592 0002616  96.9641 263.1852 14.34218166 27945
IRIDIUM 175             
1 43928U 19002G   19206.40535951  .00000093  00000-0  10782-4 0  9992
2 43928  86.6109 326.1325 0001964  68.2458 291.8968 14.72245704 28653
IRIDIUM 171             
1 43929U 19002H   19206.44804637  .00000067  00000-0  16695-4 0  9997
2 43929  86.4000 326.1644 0002561  93.7303 266.4186 14.34216701 27946
IRIDIUM 170             
1 43930U 19002J   19206.48568294  .00000111  00000-0  13663-4 0  9991
2 43930  86.6125 326.1500 0002046  94.6987 265.4464 14.72245684 28689
IRIDIUM 167             
1 43931U 19002K   19206.44169979  .00000036  00000-0  56797-5 0  9997
2 43931  86.3997 326.1415 0003459 101.6583 258.5001 14.34216439 27941
